[{"OBJECT_NAME":"SJ-7","OBJECT_ID":"2005-024A","EPOCH":"2026-03-09T19:15:10.985472","MEAN_MOTION":15.19970131,"ECCENTRICITY":0.00167613,"INCLINATION":97.7412,"RA_OF_ASC_NODE":96.2911,"ARG_OF_PERICENTER":23.4499,"MEAN_ANOMALY":336.7495,"EPHEMERIS_TYPE":0,"CLASSIFICATION_TYPE":"U","NORAD_CAT_ID":28737,"ELEMENT_SET_NO":999,"REV_AT_EPOCH":13292,"BSTAR":0.00046264907,"MEAN_MOTION_DOT":9.925e-5,"MEAN_MOTION_DDOT":0},{"OBJECT_NAME":"CZ-6A DEB","OBJECT_ID":"2022-151CR","EPOCH":"2026-03-09T17:17:08.438784","MEAN_MOTION":15.11778726,"ECCENTRICITY":0.00454354,"INCLINATION":98.5417,"RA_OF_ASC_NODE":160.2576,"ARG_OF_PERICENTER":86.1357,"MEAN_ANOMALY":274.5063,"EPHEMERIS_TYPE":0,"CLASSIFICATION_TYPE":"U","NORAD_CAT_ID":54346,"ELEMENT_SET_NO":999,"REV_AT_EPOCH":17769,"BSTAR":0.0041471579,"MEAN_MOTION_DOT":0.00073134,"MEAN_MOTION_DDOT":0}]
